0 ELEKTRO-L
1 37344U 11001A   13282.49281595 -.00000111  00000-0  00000+0 0  7297
2 37344 000.0711 015.6964 0003586 176.3676 079.6513 01.00272432 10015
0 ELEKTRO-L
1 37344U 11001A   13282.64734598  .00000000  00000-0  10000-3 0  7303
2 37344 000.0673 344.0672 0003592 202.2120 141.2204 01.00268645  9390
0 ELEKTRO-L
1 37344U 11001A   13283.72367313 -.00000115  00000-0  00000+0 0  7303
2 37344 000.0718 017.2914 0003602 176.4651 162.2797 01.00272550 10023
0 ELEKTRO-L
1 37344U 11001A   13286.11335806 -.00000121  00000-0  00000+0 0  7320
2 37344 000.0727 020.7098 0003598 175.2457 302.7226 01.00272772 10046
0 ELEKTRO-L
1 37344U 11001A   13287.49188920 -.00000123  00000-0  00000+0 0  7338
2 37344 000.0734 022.7215 0003583 174.8514 078.7357 01.00272879 10065
0 ELEKTRO-L
1 37344U 11001A   13288.50636231 -.00000122  00000-0  00000+0 0  7344
2 37344 000.0740 024.0062 0003555 174.6838 083.8305 01.00272931 10073
0 ELEKTRO-L
1 37344U 11001A   13289.58957733 -.00000121  00000-0  00000+0 0  7356
2 37344 000.0748 025.2220 0003508 174.5355 113.7917 01.00273007 10089
0 ELEKTRO-L
1 37344U 11001A   13289.64912502  .00000000  00000-0  10000-3 0  7369
2 37344 000.0686 353.3530 0003404 198.1046 143.6044 01.00268878  9466
0 ELEKTRO-L
1 37344U 11001A   13290.64168274 -.00000119  00000-0  00000+0 0  7367
2 37344 000.0757 026.3554 0003463 173.4888 133.5034 01.00273007 10091
0 ELEKTRO-L
1 37344U 11001A   13291.67506801 -.00000117  00000-0  00000+0 0  7372
2 37344 000.0766 027.4444 0003417 172.7807 146.1637 01.00272979 10101
0 ELEKTRO-L
1 37344U 11001A   13293.08746696 -.00000114  00000-0  00000+0 0  7385
2 37344 000.0777 028.9348 0003363 171.0567 296.2596 01.00272892 10113
0 ELEKTRO-L
1 37344U 11001A   13294.10353189 -.00000112  00000-0  00000+0 0  7399
2 37344 000.0787 029.9333 0003324 170.0532 303.0545 01.00272806 10124
0 ELEKTRO-L
1 37344U 11001A   13295.11184731 -.00000111  00000-0  00000+0 0  7407
2 37344 000.0798 030.9321 0003289 168.8886 307.2129 01.00272701 10131
